STARLINK-1497           
1 45781U 20038BD  25328.91670139  .00140237  00000+0  15783-2 0  9996
2 45781  53.0369 243.3848 0006881  61.5523 147.0719 15.61609381  5981
STARLINK-1510           
1 45784U 20038BG  25328.91670139  .00079754  00000+0  39930-3 0  9995
2 45784  53.0264 216.4285 0004581 137.7272  49.1075 15.81106645  6026
STARLINK-1513           
1 45786U 20038BJ  25328.68793381  .00000549  00000+0  55771-4 0  9994
2 45786  53.0559 307.9885 0001397  94.5970 265.5178 15.06397674300930
STARLINK-1522           
1 46027U 20055A   25328.46955698  .00009302  00000+0  64260-3 0  9997
2 46027  53.0527 238.9668 0001440  81.1070 279.0082 15.06394967293025
STARLINK-1523           
1 46028U 20055B   25328.48429604  .00004566  00000+0  32536-3 0  9991
2 46028  53.0544 238.9045 0001719 109.1769 250.9406 15.06388865293049
STARLINK-1526           
1 46029U 20055C   25328.47692315  .00005855  00000+0  41169-3 0  9996
2 46029  53.0535 238.9351 0001625  99.3193 260.7980 15.06391841293030
STARLINK-1555           
1 46032U 20055F   25328.46217492  .00003966  00000+0  28504-3 0  9997
2 46032  53.0530 238.9989 0001716  83.7943 276.3241 15.06394888293034
STARLINK-1556           
1 46033U 20055G   25328.17836399  .00012774  00000+0  87505-3 0  9992
2 46033  53.0532 240.2771 0001233 100.2692 259.8436 15.06392583292965
STARLINK-1557           
1 46034U 20055H   25328.44742603 -.00002680  00000+0 -16110-3 0  9998
2 46034  53.0541 239.0683 0001357 104.7232 255.3907 15.06390711293001
STARLINK-1558           
1 46035U 20055J   25328.45480267  .00003062  00000+0  22441-3 0  9992
2 46035  53.0544 239.0376 0001525 101.8121 258.3039 15.06392678293032
STARLINK-1560           
1 46036U 20055K   25328.04198546  .00010792  00000+0  74238-3 0  9993
2 46036  53.0544 240.8906 0001759  81.7036 278.4152 15.06394374292978
STARLINK-1567           
1 46038U 20055M   25328.45112336  .00009425  00000+0  65085-3 0  9994
2 46038  53.0540 239.0530 0001498  98.2956 261.8203 15.06395514293020
STARLINK-1569           
1 46039U 20055N   25328.45849487  .00002220  00000+0  16794-3 0  9998
2 46039  53.0532 239.0208 0001710  97.4670 262.6513 15.06394555293022
STARLINK-1582           
1 46043U 20055S   25328.46586162  .00006406  00000+0  44853-3 0  9999
2 46043  53.0532 238.9849 0001424  94.5062 265.6090 15.06405134293020
STARLINK-1591           
1 46045U 20055U   25328.49167223  .00009135  00000+0  63144-3 0  9993
2 46045  53.0537 238.8702 0001540  76.7303 283.3857 15.06396317293012
STARLINK-1524           
1 46047U 20055W   25328.11293799  .00003878  00000+0  27950-3 0  9995
2 46047  53.0532 230.5724 0001761 109.3604 250.7576 15.06348452293118
STARLINK-1527           
1 46048U 20055X   25328.44098009  .00007547  00000+0  52502-3 0  9997
2 46048  53.0535 229.0994 0001494 101.9377 258.1779 15.06397846293143
STARLINK-1540           
1 46051U 20055AA  25328.14241782  .00003810  00000+0  27458-3 0  9997
2 46051  53.0551 230.4353 0001741  92.1989 267.9199 15.06392930293137
STARLINK-1541           
1 46052U 20055AB  25328.45941522  .00004276  00000+0  30588-3 0  9996
2 46052  53.0550 229.0088 0001940  97.0561 263.0648 15.06388062293145
STARLINK-1543           
1 46053U 20055AC  25328.46310248  .00007812  00000+0  54279-3 0  9995
2 46053  53.0523 228.9994 0001497  68.9758 291.1391 15.06396129293175
STARLINK-1548           
1 46054U 20055AD  25328.13874039  .00008070  00000+0  55985-3 0  9995
2 46054  53.0539 230.4531 0001527  81.6005 278.5157 15.06411896293122
STARLINK-1554           
1 46055U 20055AE  25328.45573019  .00004813  00000+0  34184-3 0  9994
2 46055  53.0536 229.0305 0001783  97.2076 262.9116 15.06392044293178
STARLINK-1564           
1 46058U 20055AH  25328.46684353  .00005989  00000+0  42055-3 0  9993
2 46058  53.0530 229.4448 0001708  73.1480 286.9696 15.06403753293164
STARLINK-1570           
1 46059U 20055AJ  25328.42993030  .00005897  00000+0  41449-3 0  9999
2 46059  53.0538 229.1524 0001455  88.9492 271.1664 15.06396692293121
STARLINK-1572           
1 46060U 20055AK  25328.42622450  .00003130  00000+0  22905-3 0  9990
2 46060  53.0537 229.1624 0001422  88.7960 271.3192 15.06381370293131
STARLINK-1573           
1 46061U 20055AL  25328.15717598  .00009072  00000+0  62719-3 0  9997
2 46061  53.0533 230.4081 0001491  82.6074 277.5084 15.06398987293124
STARLINK-1577           
1 46063U 20055AN  25328.44832721  .00017097  00000+0  11635-2 0  9993
2 46063  53.0524 229.0643 0001504  94.8316 265.2845 15.06413829293169
STARLINK-1583           
1 46064U 20055AP  25328.14979517  .00014505  00000+0  99021-3 0  9993
2 46064  53.0529 230.4070 0001608  99.3103 260.8068 15.06417148293126
STARLINK-1525           
1 46066U 20055AR  25328.67871534  .00014535  00000+0  99180-3 0  9992
2 46066  53.0525 208.0297 0003148  84.6822 275.4526 15.06430702293472
STARLINK-1536           
1 46070U 20055AV  25328.65660647  .00003167  00000+0  23145-3 0  9993
2 46070  53.0524 208.1319 0001631  95.9305 264.1869 15.06392964293481
STARLINK-1542           
1 46073U 20055AY  25328.38383838 -.00001440  00000+0 -77772-4 0  9990
2 46073  53.0541 209.3516 0001434  95.9719 264.1434 15.06406371293436
STARLINK-1549           
1 46074U 20055AZ  25328.63448818  .00007004  00000+0  48857-3 0  9990
2 46074  53.0526 208.2248 0001424 102.0958 258.0191 15.06406479293468
STARLINK-1551           
1 46075U 20055BA  25328.66030078  .00004371  00000+0  31223-3 0  9992
2 46075  53.0525 208.1084 0001738  79.1386 280.9799 15.06391540293473
STARLINK-1552           
1 46076U 20055BB  25328.08897826  .00004224  00000+0  30234-3 0  9999
2 46076  53.0537 210.6751 0001509  91.3146 268.8016 15.06395473293377
STARLINK-1559           
1 46077U 20055BC  25328.67272373  .00014134  00000+0  66063-3 0  9999
2 46077  53.0495 199.0004 0009445  86.9032 273.3043 15.20019841293563
STARLINK-1566           
1 46079U 20055BE  25328.37278466  .00002094  00000+0  15946-3 0  9993
2 46079  53.0528 209.4038 0001560  83.1854 276.9313 15.06397516293433
STARLINK-1568           
1 46080U 20055BF  25328.91670139  .00084967  00000+0  23256-2 0  9999
2 46080  53.0633 169.4644 0006183 123.3449 103.7756 15.36616910  5875
STARLINK-1578           
1 46082U 20055BH  25328.65293615  .00009330  00000+0  64438-3 0  9991
2 46082  53.0514 208.1452 0001780 100.8331 259.2859 15.06400880293471
STARLINK-1579           
1 46083U 20055BJ  25327.95902420  .00003119  00000+0  22824-3 0  9997
2 46083  53.0536 211.2513 0001352  77.2098 282.9042 15.06392931293363
STARLINK-1585           
1 46117U 20057A   25328.91670139  .00081169  00000+0  17242-2 0  9991
2 46117  53.0533  38.2251 0005659   6.0612 117.6142 15.44318907  5921
STARLINK-1593           
1 46119U 20057C   25328.72560485  .00054440  00000+0  12369-2 0  9991
2 46119  53.0553  59.4227 0002066 318.0262  42.0584 15.42510915291625
STARLINK-1601           
1 46120U 20057D   25328.91670139  .00106784  00000+0  17256-2 0  9991
2 46120  53.0528  56.6695 0007244 332.3315 303.2663 15.52024189  5883
STARLINK-1605           
1 46123U 20057G   25328.91670139  .00199772  00000+0  26940-2 0  9993
2 46123  53.0460   1.7665 0007414 300.0460 201.4866 15.56606251  5953
STARLINK-1614           
1 46124U 20057H   25328.91670139  .00211457  00000+0  27170-2 0  9995
2 46124  53.0449   1.3652 0006584 302.7547 359.2725 15.57866068  5912
STARLINK-1621           
1 46127U 20057L   25328.60850731  .00060844  00000+0  12896-2 0  9993
2 46127  53.0517  34.0955 0007474 287.4188  72.6001 15.44500900290701
STARLINK-1622           
1 46128U 20057M   25328.43519185  .00095617  00000+0  25853-2 0  9993
2 46128  53.0327   9.1574 0001844 249.2080 110.8725 15.36950726291045
STARLINK-1623           
1 46129U 20057N   25328.55891796  .00000514  00000+0  53423-4 0  9996
2 46129  53.0566  28.5646 0001404 107.4806 252.6337 15.06400022290789
STARLINK-1624           
1 46130U 20057P   25328.66042453  .00078317  00000+0  16954-2 0  9990
2 46130  53.0537  19.6928 0009245   3.5359 356.5710 15.43749648292167
STARLINK-1625           
1 46131U 20057Q   25328.67564166  .00091134  00000+0  20279-2 0  9999
2 46131  53.0553  39.6478 0003781 349.0731  11.0191 15.42895214291894
STARLINK-1643           
1 46136U 20057V   25328.60659772  .01020205  54868-3  16385-2 0  9995
2 46136  53.0311   5.1589 0008071  16.6739 343.4555 16.03009608291117
STARLINK-1596           
1 46141U 20057AA  25328.52591553  .00065398  00000+0  22127-2 0  9991
2 46141  53.0485   6.2461 0005015 276.1950  83.8477 15.30013936291092
STARLINK-1597           
1 46142U 20057AB  25328.55155296  .00000734  00000+0  68138-4 0  9992
2 46142  53.0559  68.5999 0001301  81.2109 278.9027 15.06408301290215
STARLINK-1606           
1 46144U 20057AD  25328.58546080  .00083766  00000+0  21760-2 0  9996
2 46144  53.0549  40.7598 0006846 346.9652  13.1173 15.38234828278860
STARLINK-1608           
1 46146U 20057AF  25328.56259608  .00000266  00000+0  36735-4 0  9997
2 46146  53.0546  68.5517 0001146  92.8039 267.3081 15.06410681290225
STARLINK-1629           
1 46150U 20057AK  25328.44087304  .00064290  00000+0  92881-3 0  9991
2 46150  53.0305  26.6811 0007062 252.0007 108.0234 15.55340719290806
STARLINK-1642           
1 46154U 20057AP  25328.91670139  .00113977  00000+0  17890-2 0  9994
2 46154  53.0480  32.9814 0003618 261.8489 212.5701 15.52820921  5946
STARLINK-1667           
1 46155U 20057AQ  25328.40243720  .00097217  00000+0  26705-2 0  9994
2 46155  53.0343   9.6545 0001582 303.5117  56.5734 15.36450246292274
STARLINK-1545           
1 46156U 20057AR  25328.58601569  .00074658  00000+0  20521-2 0  9997
2 46156  53.0537  41.5100 0007612 348.7940  11.2891 15.36537638291853
STARLINK-1587           
1 46157U 20057AS  25328.91670139  .00136771  00000+0  26305-2 0  9995
2 46157  53.0503  11.7526 0010959 332.9589 342.3473 15.46907890  5893
STARLINK-1595           
1 46159U 20057AU  25328.66948961  .00002200  00000+0  16650-3 0  9992
2 46159  53.0544  68.0705 0001117 106.8211 253.2900 15.06409255291496
